QIANFAN-89              
1 63175U 25046S   25299.32720141  .00000088  00000+0  11803-3 0  9997
2 63175  88.9775 324.9483 0014510 261.3265  98.6242 13.50973027 41000
QIANFAN-90              
1 63176U 25046T   25299.28186193  .00000011  00000+0 -89636-6 0  9995
2 63176  88.9775 324.9254 0011464 258.9561 101.0301 13.50973907 41016
